{"type": "FeatureCollection", "features": [ {"type": "Feature", "properties": {"norad_id": 42738, "name": "QZS-2 (QZSS/PRN 194)", "group": "gnss", "lat": -39.33889731639565, "lon": 165.43762106062638, "alt_km": 32635.289580880923, "timestamp": "2025-12-17T19:34:08.281750+00:00", "meta": {"OBJECT_NAME": "QZS-2 (QZSS/PRN 194)", "OBJECT_ID": "2017-028A", "EPOCH": "2025-12-16T13:59:18.709152", "MEAN_MOTION": 1.00282034, "ECCENTRICITY": 0.07568845, "INCLINATION": 39.7078, "RA_OF_ASC_NODE": 245.8268, "ARG_OF_PERICENTER": 269.5176, "MEAN_ANOMALY": 281.8987, "EPHEMERIS_TYPE": 0, "CLASSIFICATION_TYPE": "U", "NORAD_CAT_ID": 42738, "ELEMENT_SET_NO": 999, "REV_AT_EPOCH": 579, "BSTAR": 0, "MEAN_MOTION_DOT": -1.46e-06, "MEAN_MOTION_DDOT": 0}, "tle": {"line1": "1 42738U 17028A   25350.58285543 -.00000146  00000+0  00000+0 0  9997", "line2": "2 42738  39.7078 245.8268 0756884 269.5176 281.8987  1.00282034  5793"}}, "geometry": {"type": "Point", "coordinates": [165.43762106062638, -39.33889731639565]}}, {"type": "Feature", "properties": {"norad_id": 42917, "name": "QZS-3 (QZSS/PRN 199)", "group": "gnss", "lat": 0.0007137968465406545, "lon": 147.22465411253575, "alt_km": 35792.08902375813, "timestamp": "2025-12-17T19:34:08.281763+00:00", "meta": {"OBJECT_NAME": "QZS-3 (QZSS/PRN 199)", "OBJECT_ID": "2017-048A", "EPOCH": "2025-12-17T05:22:00.823296", "MEAN_MOTION": 1.00267643, "ECCENTRICITY": 0.00017834, "INCLINATION": 0.0265, "RA_OF_ASC_NODE": 199.8718, "ARG_OF_PERICENTER": 76.54, "MEAN_ANOMALY": 17.2355, "EPHEMERIS_TYPE": 0, "CLASSIFICATION_TYPE": "U", "NORAD_CAT_ID": 42917, "ELEMENT_SET_NO": 999, "REV_AT_EPOCH": 3043, "BSTAR": 0, "MEAN_MOTION_DOT": 0, "MEAN_MOTION_DDOT": 0}, "tle": {"line1": "1 42917U 17048A   25351.22362064  .00000000  00000+0  00000+0 0  9992", "line2": "2 42917   0.0265 199.8718 0001783  76.5400  17.2355  1.00267643 30434"}}, "geometry": {"type": "Point", "coordinates": [147.22465411253575, 0.0007137968465406545]}}, {"type": "Feature", "properties": {"norad_id": 42939, "name": "COSMOS 2522 (752)", "group": "gnss", "lat": -40.937165834516286, "lon": 43.020883161012414, "alt_km": 19118.653475220555, "timestamp": "2025-12-17T19:34:08.281775+00:00", "meta": {"OBJECT_NAME": "COSMOS 2522 (752)", "OBJECT_ID": "2017-055A", "EPOCH": "2025-12-16T02:41:16.915776", "MEAN_MOTION": 2.13102063, "ECCENTRICITY": 0.00063883, "INCLINATION": 64.0761, "RA_OF_ASC_NODE": 198.1142, "ARG_OF_PERICENTER": 224.0896, "MEAN_ANOMALY": 135.9399, "EPHEMERIS_TYPE": 0, "CLASSIFICATION_TYPE": "U", "NORAD_CAT_ID": 42939, "ELEMENT_SET_NO": 999, "REV_AT_EPOCH": 6407, "BSTAR": 0, "MEAN_MOTION_DOT": 1.09e-06, "MEAN_MOTION_DDOT": 0}, "tle": {"line1": "1 42939U 17055A   25350.11200134  .00000109  00000+0  00000+0 0  9990", "line2": "2 42939  64.0761 198.1142 0006388 224.0896 135.9399  2.13102063 64079"}}, "geometry": {"type": "Point", "coordinates": [43.020883161012414, -40.937165834516286]}}, {"type": "Feature", "properties": {"norad_id": 42965, "name": "QZS-4 (QZSS/PRN 195)", "group": "gnss", "lat": 11.433223931394298, "lon": 151.94928210062614, "alt_km": 36639.02654878138, "timestamp": "2025-12-17T19:34:08.281787+00:00", "meta": {"OBJECT_NAME": "QZS-4 (QZSS/PRN 195)", "OBJECT_ID": "2017-062A", "EPOCH": "2025-12-16T20:48:41.404032", "MEAN_MOTION": 1.00252046, "ECCENTRICITY": 0.07515882, "INCLINATION": 40.2238, "RA_OF_ASC_NODE": 345.8181, "ARG_OF_PERICENTER": 271.6391, "MEAN_ANOMALY": 276.5319, "EPHEMERIS_TYPE": 0, "CLASSIFICATION_TYPE": "U", "NORAD_CAT_ID": 42965, "ELEMENT_SET_NO": 999, "REV_AT_EPOCH": 2997, "BSTAR": 0, "MEAN_MOTION_DOT": -3.46e-06, "MEAN_MOTION_DDOT": 0}, "tle": {"line1": "1 42965U 17062A   25350.86714588 -.00000346  00000+0  00000+0 0  9996", "line2": "2 42965  40.2238 345.8181 0751588 271.6391 276.5319  1.00252046 29970"}}, "geometry": {"type": "Point", "coordinates": [151.94928210062614, 11.433223931394298]}}, {"type": "Feature", "properties": {"norad_id": 43001, "name": "BEIDOU-3 M1 (C19)", "group": "gnss", "lat": 48.546607126153305, "lon": -159.319911869203, "alt_km": 21548.2627823036, "timestamp": "2025-12-17T19:34:08.281803+00:00", "meta": {"OBJECT_NAME": "BEIDOU-3 M1 (C19)", "OBJECT_ID": "2017-069A", "EPOCH": "2025-12-17T02:31:31.300896", "MEAN_MOTION": 1.86231373, "ECCENTRICITY": 0.00093891, "INCLINATION": 56.5309, "RA_OF_ASC_NODE": 69.0894, "ARG_OF_PERICENTER": 302.653, "MEAN_ANOMALY": 57.2803, "EPHEMERIS_TYPE": 0, "CLASSIFICATION_TYPE": "U", "NORAD_CAT_ID": 43001, "ELEMENT_SET_NO": 999, "REV_AT_EPOCH": 5521, "BSTAR": 0, "MEAN_MOTION_DOT": -7.5e-07, "MEAN_MOTION_DDOT": 0}, "tle": {"line1": "1 43001U 17069A   25351.10522339 -.00000075  00000+0  00000+0 0  9993", "line2": "2 43001  56.5309  69.0894 0009389 302.6530  57.2803  1.86231373 55214"}}, "geometry": {"type": "Point", "coordinates": [-159.319911869203, 48.546607126153305]}}, {"type": "Feature", "properties": {"norad_id": 43002, "name": "BEIDOU-3 M2 (C20)", "group": "gnss", "lat": 18.672304309844684, "lon": -123.78348118084419, "alt_km": 21543.762736915767, "timestamp": "2025-12-17T19:34:08.281828+00:00", "meta": {"OBJECT_NAME": "BEIDOU-3 M2 (C20)", "OBJECT_ID": "2017-069B", "EPOCH": "2025-12-17T01:02:46.646016", "MEAN_MOTION": 1.86230935, "ECCENTRICITY": 0.00064468, "INCLINATION": 56.5305, "RA_OF_ASC_NODE": 69.1275, "ARG_OF_PERICENTER": 330.7848, "MEAN_ANOMALY": 29.2027, "EPHEMERIS_TYPE": 0, "CLASSIFICATION_TYPE": "U", "NORAD_CAT_ID": 43002, "ELEMENT_SET_NO": 999, "REV_AT_EPOCH": 5520, "BSTAR": 0, "MEAN_MOTION_DOT": -7.5e-07, "MEAN_MOTION_DDOT": 0}, "tle": {"line1": "1 43002U 17069B   25351.04359544 -.00000075  00000+0  00000+0 0  9993", "line2": "2 43002  56.5305  69.1275 0006446 330.7848  29.2027  1.86230935 55209"}}, "geometry": {"type": "Point", "coordinates": [-123.78348118084419, 18.672304309844684]}}, {"type": "Feature", "properties": {"norad_id": 43055, "name": "GSAT0215 (GALILEO 19)", "group": "gnss", "lat": 26.370345641277115, "lon": -113.28419455738695, "alt_km": 23216.202196960465, "timestamp": "2025-12-17T19:34:08.281850+00:00", "meta": {"OBJECT_NAME": "GSAT0215 (GALILEO 19)", "OBJECT_ID": "2017-079A", "EPOCH": "2025-12-11T21:30:24.060384", "MEAN_MOTION": 1.704739, "ECCENTRICITY": 0.00012658, "INCLINATION": 55.1303, "RA_OF_ASC_NODE": 226.661, "ARG_OF_PERICENTER": 350.6161, "MEAN_ANOMALY": 9.46, "EPHEMERIS_TYPE": 0, "CLASSIFICATION_TYPE": "U", "NORAD_CAT_ID": 43055, "ELEMENT_SET_NO": 999, "REV_AT_EPOCH": 4979, "BSTAR": 0, "MEAN_MOTION_DOT": 1.3e-07, "MEAN_MOTION_DDOT": 0}, "tle": {"line1": "1 43055U 17079A   25345.89611181  .00000013  00000+0  00000+0 0  9997", "line2": "2 43055  55.1303 226.6610 0001265 350.6161   9.4600  1.70473900 49794"}}, "geometry": {"type": "Point", "coordinates": [-113.28419455738695, 26.370345641277115]}}, {"type": "Feature", "properties": {"norad_id": 43056, "name": "GSAT0216 (GALILEO 20)", "group": "gnss", "lat": -27.313536182078114, "lon": 67.59779920153301, "alt_km": 23227.96296245515, "timestamp": "2025-12-17T19:34:08.281862+00:00", "meta": {"OBJECT_NAME": "GSAT0216 (GALILEO 20)", "OBJECT_ID": "2017-079B", "EPOCH": "2025-12-16T21:07:19.515072", "MEAN_MOTION": 1.70474167, "ECCENTRICITY": 0.00024195, "INCLINATION": 55.129, "RA_OF_ASC_NODE": 226.5236, "ARG_OF_PERICENTER": 322.2527, "MEAN_ANOMALY": 37.829, "EPHEMERIS_TYPE": 0, "CLASSIFICATION_TYPE": "U", "NORAD_CAT_ID": 43056, "ELEMENT_SET_NO": 999, "REV_AT_EPOCH": 4989, "BSTAR": 0, "MEAN_MOTION_DOT": 5.3e-07, "MEAN_MOTION_DDOT": 0}, "tle": {"line1": "1 43056U 17079B   25350.88008698  .00000053  00000+0  00000+0 0  9990", "line2": "2 43056  55.1290 226.5236 0002419 322.2527  37.8290  1.70474167 49893"}}, "geometry": {"type": "Point", "coordinates": [67.59779920153301, -27.313536182078114]}}, {"type": "Feature", "properties": {"norad_id": 43057, "name": "GSAT0217 (GALILEO 21)", "group": "gnss", "lat": 53.538066079913136, "lon": -62.93963248487294, "alt_km": 23216.135764111936, "timestamp": "2025-12-17T19:34:08.281877+00:00", "meta": {"OBJECT_NAME": "GSAT0217 (GALILEO 21)", "OBJECT_ID": "2017-079C", "EPOCH": "2025-12-16T12:20:28.313376", "MEAN_MOTION": 1.70474073, "ECCENTRICITY": 0.00027918, "INCLINATION": 55.1271, "RA_OF_ASC_NODE": 226.5317, "ARG_OF_PERICENTER": 347.0782, "MEAN_ANOMALY": 13.0112, "EPHEMERIS_TYPE": 0, "CLASSIFICATION_TYPE": "U", "NORAD_CAT_ID": 43057, "ELEMENT_SET_NO": 999, "REV_AT_EPOCH": 4987, "BSTAR": 0, "MEAN_MOTION_DOT": 5e-07, "MEAN_MOTION_DDOT": 0}, "tle": {"line1": "1 43057U 17079C   25350.51421659  .00000050  00000+0  00000+0 0  9994", "line2": "2 43057  55.1271 226.5317 0002791 347.0782  13.0112  1.70474073 49877"}}, "geometry": {"type": "Point", "coordinates": [-62.93963248487294, 53.538066079913136]}}, {"type": "Feature", "properties": {"norad_id": 43058, "name": "GSAT0218 (GALILEO 22)", "group": "gnss", "lat": -43.181375690095464, "lon": -174.33031270104013, "alt_km": 23218.833755949898, "timestamp": "2025-12-17T19:34:08.281892+00:00", "meta": {"OBJECT_NAME": "GSAT0218 (GALILEO 22)", "OBJECT_ID": "2017-079D", "EPOCH": "2025-12-12T15:04:31.769472", "MEAN_MOTION": 1.70474063, "ECCENTRICITY": 0.00028411, "INCLINATION": 55.1287, "RA_OF_ASC_NODE": 226.6365, "ARG_OF_PERICENTER": 306.3289, "MEAN_ANOMALY": 53.7237, "EPHEMERIS_TYPE": 0, "CLASSIFICATION_TYPE": "U", "NORAD_CAT_ID": 43058, "ELEMENT_SET_NO": 999, "REV_AT_EPOCH": 4983, "BSTAR": 0, "MEAN_MOTION_DOT": 1.7e-07, "MEAN_MOTION_DDOT": 0}, "tle": {"line1": "1 43058U 17079D   25346.62814548  .00000017  00000+0  00000+0 0  9998", "line2": "2 43058  55.1287 226.6365 0002841 306.3289  53.7237  1.70474063 49839"}}, "geometry": {"type": "Point", "coordinates": [-174.33031270104013, -43.181375690095464]}}]}